NORAD_CAT_ID,OBJECT_NAME,OBJECT_TYPE,EPOCH,MEAN_MOTION,ECCENTRICITY,INCLINATION,RA_OF_ASC_NODE,ARG_OF_PERICENTER,MEAN_ANOMALY,BSTAR,MEAN_MOTION_DOT,MEAN_MOTION_DDOT,TLE_LINE0,TLE_LINE1,TLE_LINE2,SEMIMAJOR_AXIS,PERIOD,APOGEE,PERIGEE,DECAYED
52879.0,STARLINK-4139,PAYLOAD,2024-02-07 14:48:05,15.0883917,0.000154,53.2171,190.7101,77.7764,282.3401,-2.9356e-06,-3.35e-06,0.0,0 STARLINK-4139,1 52879U 22062BB  24038.61672702 -.00000335  00000-0 -29356-5 0  9994,2 52879  53.2171 190.7101 0001540  77.7764 282.3401 15.08839170 91179,6917.883,95.438,540.813,538.683,0.0
52879.0,STARLINK-4139,PAYLOAD,2024-02-07 16:23:28,15.08839264,0.0001441,53.2173,190.4126,88.614,271.5017,-1.4144e-05,-5.13e-06,0.0,0 STARLINK-4139,1 52879U 22062BB  24038.68296633 -.00000513  00000-0 -14144-4 0  9992,2 52879  53.2173 190.4126 0001441  88.6140 271.5017 15.08839264 91676,6917.883,95.438,540.745,538.751,0.0
52879.0,STARLINK-4139,PAYLOAD,2024-02-08 14:38:51,15.08848908,0.0001379,53.218,186.2516,63.4867,296.6266,0.00012706,1.735e-05,0.0,0 STARLINK-4139,1 52879U 22062BB  24039.61031952  .00001735  00000-0  12706-3 0  9993,2 52879  53.2180 186.2516 0001379  63.4867 296.6266 15.08848908 91328,6917.853,95.437,540.672,538.764,0.0
52879.0,STARLINK-4139,PAYLOAD,2024-02-08 16:14:14,15.08854808,0.0001303,53.2171,185.9523,77.9508,282.163,0.00016207,2.293e-05,0.0,0 STARLINK-4139,1 52879U 22062BB  24039.67655426  .00002293  00000-0  16207-3 0  9997,2 52879  53.2171 185.9523 0001303  77.9508 282.1630 15.08854808 91827,6917.835,95.437,540.602,538.799,0.0
52879.0,STARLINK-4139,PAYLOAD,2024-02-09 14:29:38,15.08843698,0.0001577,53.2166,181.7903,113.0826,247.0332,0.00020897,3.04e-05,0.0,0 STARLINK-4139,1 52879U 22062BB  24040.60392181  .00003040  00000-0  20897-3 0  9999,2 52879  53.2166 181.7903 0001577 113.0826 247.0332 15.08843698 91470,6917.869,95.437,540.825,538.643,0.0
52879.0,STARLINK-4139,PAYLOAD,2024-02-09 19:15:48,15.08847341,0.0001584,53.2159,180.8943,109.8151,250.3012,0.00019268,2.78e-05,0.0,0 STARLINK-4139,1 52879U 22062BB  24040.80263946  .00002780  00000-0  19268-3 0  9997,2 52879  53.2159 180.8943 0001584 109.8151 250.3012 15.08847341 91996,6917.858,95.437,540.819,538.627,0.0
52879.0,STARLINK-4139,PAYLOAD,2024-02-10 09:34:17,15.08834278,0.0001784,53.2165,178.2194,91.0471,269.0726,-0.00013807,-2.485e-05,0.0,0 STARLINK-4139,1 52879U 22062BB  24041.39880869 -.00002485  00000-0 -13807-3 0  9998,2 52879  53.2165 178.2194 0001784  91.0471 269.0726 15.08834278 92086,6917.898,95.438,540.997,538.529,0.0
52879.0,STARLINK-4139,PAYLOAD,2024-02-10 14:20:27,15.08834039,0.0001526,53.2172,177.331,70.2694,289.8462,-6.0643e-05,-1.253e-05,0.0,0 STARLINK-4139,1 52879U 22062BB  24041.59753695 -.00001253  00000-0 -60643-4 0  9999,2 52879  53.2172 177.3310 0001526  70.2694 289.8462 15.08834039 91625,6917.899,95.438,540.819,538.708,0.0
52879.0,STARLINK-4139,PAYLOAD,2024-02-10 19:06:36,15.08839212,0.0001436,53.217,176.4335,98.0591,262.0564,-7.1739e-05,-1.429e-05,0.0,0 STARLINK-4139,1 52879U 22062BB  24041.79625158 -.00001429  00000-0 -71739-4 0  9996,2 52879  53.2170 176.4335 0001436  98.0591 262.0564 15.08839212 91651,6917.883,95.438,540.741,538.754,0.0
52879.0,STARLINK-4139,PAYLOAD,2024-02-11 14:11:12,15.08855174,0.000172,53.2164,172.866,112.2619,247.8556,0.00025064,3.705e-05,0.0,0 STARLINK-4139,1 52879U 22062BB  24042.59111893  .00003705  00000-0  25064-3 0  9997,2 52879  53.2164 172.8660 0001720 112.2619 247.8556 15.08855174 91771,6917.834,95.437,540.889,538.509,0.0
52879.0,STARLINK-4139,PAYLOAD,2024-02-12 12:26:37,15.08840824,0.0001668,53.2194,168.7074,98.9273,261.1908,0.00015824,2.231e-05,0.0,0 STARLINK-4139,1 52879U 22062BB  24043.51848747  .00002231  00000-0  15824-3 0  9991,2 52879  53.2194 168.7074 0001668  98.9273 261.1908 15.08840824 92401,6917.878,95.438,540.897,538.589,0.0
52879.0,STARLINK-4139,PAYLOAD,2024-02-12 14:02:00,15.08839436,0.0001726,53.2187,168.4094,106.3608,253.7574,0.00018697,2.689e-05,0.0,0 STARLINK-4139,1 52879U 22062BB  24043.58472728  .00002689  00000-0  18697-3 0  9998,2 52879  53.2187 168.4094 0001726 106.3608 253.7574 15.08839436 91922,6917.882,95.438,540.941,538.553,0.0
52879.0,STARLINK-4139,PAYLOAD,2024-02-12 17:12:46,15.08850313,0.0001495,53.2174,167.8115,91.1057,269.0107,0.00025983,3.851e-05,0.0,0 STARLINK-4139,1 52879U 22062BB  24043.71720260  .00003851  00000-0  25983-3 0  9998,2 52879  53.2174 167.8115 0001495  91.1057 269.0107 15.08850313 92433,6917.849,95.437,540.748,538.68,0.0
52879.0,STARLINK-4139,PAYLOAD,2024-02-13 12:17:24,15.08838817,0.0001777,53.217,164.2443,110.1996,249.9188,-0.00014277,-2.56e-05,0.0,0 STARLINK-4139,1 52879U 22062BB  24044.51208823 -.00002560  00000-0 -14277-3 0  9995,2 52879  53.2170 164.2443 0001777 110.1996 249.9188 15.08838817 92555,6917.884,95.438,540.978,538.52,0.0
52879.0,STARLINK-4139,PAYLOAD,2024-02-13 13:52:47,15.08839389,0.0001818,53.2173,163.9469,114.163,245.9553,-0.00012086,-2.211e-05,0.0,0 STARLINK-4139,1 52879U 22062BB  24044.57832794 -.00002211  00000-0 -12086-3 0  9990,2 52879  53.2173 163.9469 0001818 114.1630 245.9553 15.08839389 92071,6917.882,95.438,541.005,538.49,0.0
52879.0,STARLINK-4139,PAYLOAD,2024-02-13 15:28:10,15.08839251,0.0001668,53.2169,163.6515,70.6627,289.4545,-6.5822e-05,-1.335e-05,0.0,0 STARLINK-4139,1 52879U 22062BB  24044.64457118 -.00001335  00000-0 -65822-4 0  9994,2 52879  53.2169 163.6515 0001668  70.6627 289.4545 15.08839251 92083,6917.883,95.438,540.902,538.594,0.0
52879.0,STARLINK-4139,PAYLOAD,2024-02-14 13:43:34,15.08849577,0.0001158,53.214,159.4862,72.6034,287.5085,0.00024895,3.677e-05,0.0,0 STARLINK-4139,1 52879U 22062BB  24045.57192571  .00003677  00000-0  24895-3 0  9999,2 52879  53.2140 159.4862 0001158  72.6034 287.5085 15.08849577 92224,6917.851,95.437,540.517,538.915,0.0
52879.0,STARLINK-4139,PAYLOAD,2024-02-14 15:18:57,15.08859606,0.0001371,53.2164,159.1884,84.935,275.1798,0.00050337,7.737e-05,0.0,0 STARLINK-4139,1 52879U 22062BB  24045.63816214  .00007737  00000-0  50337-3 0  9994,2 52879  53.2164 159.1884 0001371  84.9350 275.1798 15.08859606 92728,6917.82,95.436,540.634,538.737,0.0
52879.0,STARLINK-4139,PAYLOAD,2024-02-15 00:51:16,15.08842738,0.0001292,53.2165,157.4053,90.8807,269.2333,0.00018083,2.591e-05,0.0,0 STARLINK-4139,1 52879U 22062BB  24046.03560807  .00002591  00000-0  18083-3 0  9998,2 52879  53.2165 157.4053 0001292  90.8807 269.2333 15.08842738 92786,6917.872,95.437,540.631,538.843,0.0
52879.0,STARLINK-4139,PAYLOAD,2024-02-15 11:58:59,15.08835849,0.0001987,53.2162,155.3231,91.9951,268.1269,1.948e-05,2.2e-07,0.0,0 STARLINK-4139,1 52879U 22062BB  24046.49929545  .00000022  00000-0  19480-4 0  9996,2 52879  53.2162 155.3231 0001987  91.9951 268.1269 15.08835849 92850,6917.893,95.438,541.133,538.383,0.0
52879.0,STARLINK-4139,PAYLOAD,2024-02-15 13:34:22,15.088351,0.0001668,53.2165,155.0271,87.0616,273.0567,5.2908e-05,5.54e-06,0.0,0 STARLINK-4139,1 52879U 22062BB  24046.56553712  .00000554  00000-0  52908-4 0  9995,2 52879  53.2165 155.0271 0001668  87.0616 273.0567 15.08835100 92377,6917.895,95.438,540.914,538.606,0.0
52879.0,STARLINK-4139,PAYLOAD,2024-02-16 13:25:09,15.08847722,0.0001472,53.2167,150.5674,82.2465,277.8694,2.9832e-05,1.87e-06,0.0,0 STARLINK-4139,1 52879U 22062BB  24047.55913266  .00000187  00000-0  29832-4 0  9991,2 52879  53.2167 150.5674 0001472  82.2465 277.8694 15.08847722 92521,6917.857,95.437,540.74,538.703,0.0
52879.0,STARLINK-4139,PAYLOAD,2024-02-16 16:35:55,15.08848316,0.0001415,53.2163,149.9697,82.929,277.1863,0.00023704,3.487e-05,0.0,0 STARLINK-4139,1 52879U 22062BB  24047.69161284  .00003487  00000-0  23704-3 0  9998,2 52879  53.2163 149.9697 0001415  82.9290 277.1863 15.08848316 93032,6917.855,95.437,540.699,538.741,0.0
52879.0,STARLINK-4139,PAYLOAD,2024-02-17 11:40:33,15.08835595,0.0001465,53.2165,146.4032,83.9251,276.1908,0.00022925,3.362e-05,0.0,0 STARLINK-4139,1 52879U 22062BB  24048.48650199  .00003362  00000-0  22925-3 0  9990,2 52879  53.2165 146.4032 0001465  83.9251 276.1908 15.08835595 93159,6917.894,95.438,540.772,538.745,0.0
52879.0,STARLINK-4139,PAYLOAD,2024-02-17 13:15:56,15.08839647,0.0001372,53.2147,146.1053,87.9384,272.1765,0.00017182,2.448e-05,0.0,0 STARLINK-4139,1 52879U 22062BB  24048.55273833  .00002448  00000-0  17182-3 0  9997,2 52879  53.2147 146.1053 0001372  87.9384 272.1765 15.08839647 92672,6917.881,95.438,540.696,538.797,0.0
52879.0,STARLINK-4139,PAYLOAD,2024-02-18 13:06:43,15.0884831,0.0001492,53.2167,141.6465,85.0111,275.1051,0.00021145,3.08e-05,0.0,0 STARLINK-4139,1 52879U 22062BB  24049.54633575  .00003080  00000-0  21145-3 0  9997,2 52879  53.2167 141.6465 0001492  85.0111 275.1051 15.08848310 92826,6917.855,95.437,540.752,538.688,0.0
52879.0,STARLINK-4139,PAYLOAD,2024-02-19 11:22:07,15.08833768,0.0001393,53.2158,137.4855,91.3788,268.7364,-2.609e-05,-7.03e-06,0.0,0 STARLINK-4139,1 52879U 22062BB  24050.47370262 -.00000703  00000-0 -26090-4 0  9998,2 52879  53.2158 137.4855 0001393  91.3788 268.7364 15.08833768 93458,6917.899,95.438,540.728,538.801,0.0
52879.0,STARLINK-4139,PAYLOAD,2024-02-19 12:57:31,15.08836041,0.0001229,53.2155,137.1858,84.6657,275.4475,7.531e-05,9.11e-06,0.0,0 STARLINK-4139,1 52879U 22062BB  24050.53994385  .00000911  00000-0  75310-4 0  9991,2 52879  53.2155 137.1858 0001229  84.6657 275.4475 15.08836041 92974,6917.892,95.438,540.608,538.907,0.0
52879.0,STARLINK-4139,PAYLOAD,2024-02-20 11:12:53,15.08864433,0.0001347,53.2159,133.0215,85.7644,274.3503,0.00025251,3.736e-05,0.0,0 STARLINK-4139,1 52879U 22062BB  24051.46728164  .00003736  00000-0  25251-3 0  9990,2 52879  53.2159 133.0215 0001347  85.7644 274.3503 15.08864433 93606,6917.806,95.436,540.603,538.739,0.0
52879.0,STARLINK-4139,PAYLOAD,2024-02-20 12:48:16,15.08867683,0.000134,53.216,132.7242,81.4031,278.7113,0.0003092,4.64e-05,0.0,0 STARLINK-4139,1 52879U 22062BB  24051.53351986  .00004640  00000-0  30920-3 0  9996,2 52879  53.2160 132.7242 0001340  81.4031 278.7113 15.08867683 93122,6917.796,95.436,540.588,538.734,0.0
